STARLINK-35541          
1 66235U 25245B   25329.50006943  .00036816  00000+0  92722-3 0  9996
2 66235  53.1596  50.9185 0001501  99.3749 179.8969 15.39577559  5289
STARLINK-35454          
1 66236U 25245C   25329.50006943  .00030641  00000+0  77339-3 0  9994
2 66236  53.1599  50.8697 0001318  78.1724 224.9780 15.39601388  5162
STARLINK-35557          
1 66237U 25245D   25329.50006943 -.00524242  00000+0 -13841-1 0  9998
2 66237  53.1602  50.8657 0002849  24.1753 280.7614 15.39997928  5330
STARLINK-35556          
1 66238U 25245E   25329.50006943  .00024773  00000+0  62820-3 0  9994
2 66238  53.1603  50.8174 0001339  80.1439 248.8446 15.39576341  5332
STARLINK-35554          
1 66239U 25245F   25329.50006943  .00027623  00000+0  69904-3 0  9992
2 66239  53.1603  50.8139 0001386  75.3095 255.5043 15.39576440  5170
STARLINK-35546          
1 66240U 25245G   25329.50006943  .00057135  00000+0  14321-2 0  9997
2 66240  53.1608  50.7667 0001877  52.1222 302.5795 15.39524222  5338
STARLINK-35497          
1 66241U 25245H   25329.50006943  .00057142  00000+0  14318-2 0  9992
2 66241  53.1608  50.7625 0001775  54.8299 301.7071 15.39535890  5288
STARLINK-35480          
1 66242U 25245J   25329.50006943 -.02065133  00000+0 -47998-1 0  9995
2 66242  53.1605  50.6896 0001159  69.0358 324.2577 15.45314903  5339
STARLINK-35495          
1 66243U 25245K   25329.50006943 -.01697889  00000+0 -43471-1 0  9996
2 66243  53.1606  50.7222 0001465  84.3242 292.8959 15.42361456  5333
STARLINK-35517          
1 66244U 25245L   25329.33336806 -.02074913  00000+0 -51803-1 0  9998
2 66244  53.1611  51.5053 0001392  74.0832  98.5478 15.43243333  5095
STARLINK-35503          
1 66245U 25245M   25328.65404044  .00093003  00000+0  16611-2 0  9999
2 66245  53.1608  54.7146 0001720  58.1782 301.9395 15.49296482  5089
STARLINK-35434          
1 66246U 25245N   25329.49241508 -.00359919  00000+0 -69523-2 0  9990
2 66246  53.1612  50.7033 0001416  72.8683 287.2481 15.48535615  5053
