CCSDS_OMM_VERS = 2.0
CREATION_DATE  = 
ORIGINATOR     = 

OBJECT_NAME    = STARLINK-35541
OBJECT_ID      = 2025-245B
CENTER_NAME    = EARTH
REF_FRAME      = TEME
TIME_SYSTEM    = UTC
MEAN_ELEMENT_THEORY = SGP/SGP4

EPOCH          = 2025-11-25T12:00:05.998752
MEAN_MOTION    = 15.39577559
ECCENTRICITY   = .0001501
INCLINATION    = 53.1596
RA_OF_ASC_NODE = 50.9185
ARG_OF_PERICENTER = 99.3749
MEAN_ANOMALY   = 179.8969

EPHEMERIS_TYPE = 0
CLASSIFICATION_TYPE = U
NORAD_CAT_ID   = 66235
ELEMENT_SET_NO = 999
REV_AT_EPOCH   = 528
BSTAR          = .92722E-3
MEAN_MOTION_DOT = .36816E-3
MEAN_MOTION_DDOT = 0

CCSDS_OMM_VERS = 2.0
CREATION_DATE  = 
ORIGINATOR     = 

OBJECT_NAME    = STARLINK-35454
OBJECT_ID      = 2025-245C
CENTER_NAME    = EARTH
REF_FRAME      = TEME
TIME_SYSTEM    = UTC
MEAN_ELEMENT_THEORY = SGP/SGP4

EPOCH          = 2025-11-25T12:00:05.998752
MEAN_MOTION    = 15.39601388
ECCENTRICITY   = .0001318
INCLINATION    = 53.1599
RA_OF_ASC_NODE = 50.8697
ARG_OF_PERICENTER = 78.1724
MEAN_ANOMALY   = 224.9780

EPHEMERIS_TYPE = 0
CLASSIFICATION_TYPE = U
NORAD_CAT_ID   = 66236
ELEMENT_SET_NO = 999
REV_AT_EPOCH   = 516
BSTAR          = .77339E-3
MEAN_MOTION_DOT = .30641E-3
MEAN_MOTION_DDOT = 0

CCSDS_OMM_VERS = 2.0
CREATION_DATE  = 
ORIGINATOR     = 

OBJECT_NAME    = STARLINK-35557
OBJECT_ID      = 2025-245D
CENTER_NAME    = EARTH
REF_FRAME      = TEME
TIME_SYSTEM    = UTC
MEAN_ELEMENT_THEORY = SGP/SGP4

EPOCH          = 2025-11-25T12:00:05.998752
MEAN_MOTION    = 15.39997928
ECCENTRICITY   = .0002849
INCLINATION    = 53.1602
RA_OF_ASC_NODE = 50.8657
ARG_OF_PERICENTER = 24.1753
MEAN_ANOMALY   = 280.7614

EPHEMERIS_TYPE = 0
CLASSIFICATION_TYPE = U
NORAD_CAT_ID   = 66237
ELEMENT_SET_NO = 999
REV_AT_EPOCH   = 533
BSTAR          = -.13841E-1
MEAN_MOTION_DOT = -.524242E-2
MEAN_MOTION_DDOT = 0

CCSDS_OMM_VERS = 2.0
CREATION_DATE  = 
ORIGINATOR     = 

OBJECT_NAME    = STARLINK-35556
OBJECT_ID      = 2025-245E
CENTER_NAME    = EARTH
REF_FRAME      = TEME
TIME_SYSTEM    = UTC
MEAN_ELEMENT_THEORY = SGP/SGP4

EPOCH          = 2025-11-25T12:00:05.998752
MEAN_MOTION    = 15.39576341
ECCENTRICITY   = .0001339
INCLINATION    = 53.1603
RA_OF_ASC_NODE = 50.8174
ARG_OF_PERICENTER = 80.1439
MEAN_ANOMALY   = 248.8446

EPHEMERIS_TYPE = 0
CLASSIFICATION_TYPE = U
NORAD_CAT_ID   = 66238
ELEMENT_SET_NO = 999
REV_AT_EPOCH   = 533
BSTAR          = .6282E-3
MEAN_MOTION_DOT = .24773E-3
MEAN_MOTION_DDOT = 0

CCSDS_OMM_VERS = 2.0
CREATION_DATE  = 
ORIGINATOR     = 

OBJECT_NAME    = STARLINK-35554
OBJECT_ID      = 2025-245F
CENTER_NAME    = EARTH
REF_FRAME      = TEME
TIME_SYSTEM    = UTC
MEAN_ELEMENT_THEORY = SGP/SGP4

EPOCH          = 2025-11-25T12:00:05.998752
MEAN_MOTION    = 15.39576440
ECCENTRICITY   = .0001386
INCLINATION    = 53.1603
RA_OF_ASC_NODE = 50.8139
ARG_OF_PERICENTER = 75.3095
MEAN_ANOMALY   = 255.5043

EPHEMERIS_TYPE = 0
CLASSIFICATION_TYPE = U
NORAD_CAT_ID   = 66239
ELEMENT_SET_NO = 999
REV_AT_EPOCH   = 517
BSTAR          = .69904E-3
MEAN_MOTION_DOT = .27623E-3
MEAN_MOTION_DDOT = 0

CCSDS_OMM_VERS = 2.0
CREATION_DATE  = 
ORIGINATOR     = 

OBJECT_NAME    = STARLINK-35546
OBJECT_ID      = 2025-245G
CENTER_NAME    = EARTH
REF_FRAME      = TEME
TIME_SYSTEM    = UTC
MEAN_ELEMENT_THEORY = SGP/SGP4

EPOCH          = 2025-11-25T12:00:05.998752
MEAN_MOTION    = 15.39524222
ECCENTRICITY   = .0001877
INCLINATION    = 53.1608
RA_OF_ASC_NODE = 50.7667
ARG_OF_PERICENTER = 52.1222
MEAN_ANOMALY   = 302.5795

EPHEMERIS_TYPE = 0
CLASSIFICATION_TYPE = U
NORAD_CAT_ID   = 66240
ELEMENT_SET_NO = 999
REV_AT_EPOCH   = 533
BSTAR          = .14321E-2
MEAN_MOTION_DOT = .57135E-3
MEAN_MOTION_DDOT = 0

CCSDS_OMM_VERS = 2.0
CREATION_DATE  = 
ORIGINATOR     = 

OBJECT_NAME    = STARLINK-35497
OBJECT_ID      = 2025-245H
CENTER_NAME    = EARTH
REF_FRAME      = TEME
TIME_SYSTEM    = UTC
MEAN_ELEMENT_THEORY = SGP/SGP4

EPOCH          = 2025-11-25T12:00:05.998752
MEAN_MOTION    = 15.39535890
ECCENTRICITY   = .0001775
INCLINATION    = 53.1608
RA_OF_ASC_NODE = 50.7625
ARG_OF_PERICENTER = 54.8299
MEAN_ANOMALY   = 301.7071

EPHEMERIS_TYPE = 0
CLASSIFICATION_TYPE = U
NORAD_CAT_ID   = 66241
ELEMENT_SET_NO = 999
REV_AT_EPOCH   = 528
BSTAR          = .14318E-2
MEAN_MOTION_DOT = .57142E-3
MEAN_MOTION_DDOT = 0

CCSDS_OMM_VERS = 2.0
CREATION_DATE  = 
ORIGINATOR     = 

OBJECT_NAME    = STARLINK-35480
OBJECT_ID      = 2025-245J
CENTER_NAME    = EARTH
REF_FRAME      = TEME
TIME_SYSTEM    = UTC
MEAN_ELEMENT_THEORY = SGP/SGP4

EPOCH          = 2025-11-25T12:00:05.998752
MEAN_MOTION    = 15.45314903
ECCENTRICITY   = .0001159
INCLINATION    = 53.1605
RA_OF_ASC_NODE = 50.6896
ARG_OF_PERICENTER = 69.0358
MEAN_ANOMALY   = 324.2577

EPHEMERIS_TYPE = 0
CLASSIFICATION_TYPE = U
NORAD_CAT_ID   = 66242
ELEMENT_SET_NO = 999
REV_AT_EPOCH   = 533
BSTAR          = -.47998E-1
MEAN_MOTION_DOT = -.2065133E-1
MEAN_MOTION_DDOT = 0

CCSDS_OMM_VERS = 2.0
CREATION_DATE  = 
ORIGINATOR     = 

OBJECT_NAME    = STARLINK-35495
OBJECT_ID      = 2025-245K
CENTER_NAME    = EARTH
REF_FRAME      = TEME
TIME_SYSTEM    = UTC
MEAN_ELEMENT_THEORY = SGP/SGP4

EPOCH          = 2025-11-25T12:00:05.998752
MEAN_MOTION    = 15.42361456
ECCENTRICITY   = .0001465
INCLINATION    = 53.1606
RA_OF_ASC_NODE = 50.7222
ARG_OF_PERICENTER = 84.3242
MEAN_ANOMALY   = 292.8959

EPHEMERIS_TYPE = 0
CLASSIFICATION_TYPE = U
NORAD_CAT_ID   = 66243
ELEMENT_SET_NO = 999
REV_AT_EPOCH   = 533
BSTAR          = -.43471E-1
MEAN_MOTION_DOT = -.1697889E-1
MEAN_MOTION_DDOT = 0

CCSDS_OMM_VERS = 2.0
CREATION_DATE  = 
ORIGINATOR     = 

OBJECT_NAME    = STARLINK-35517
OBJECT_ID      = 2025-245L
CENTER_NAME    = EARTH
REF_FRAME      = TEME
TIME_SYSTEM    = UTC
MEAN_ELEMENT_THEORY = SGP/SGP4

EPOCH          = 2025-11-25T08:00:03.000384
MEAN_MOTION    = 15.43243333
ECCENTRICITY   = .00013929
INCLINATION    = 53.1611
RA_OF_ASC_NODE = 51.5053
ARG_OF_PERICENTER = 74.0832
MEAN_ANOMALY   = 98.5478

EPHEMERIS_TYPE = 0
CLASSIFICATION_TYPE = U
NORAD_CAT_ID   = 66244
ELEMENT_SET_NO = 999
REV_AT_EPOCH   = 509
BSTAR          = -.51802948E-1
MEAN_MOTION_DOT = -.2074913E-1
MEAN_MOTION_DDOT = 0

CCSDS_OMM_VERS = 2.0
CREATION_DATE  = 
ORIGINATOR     = 

OBJECT_NAME    = STARLINK-35503
OBJECT_ID      = 2025-245M
CENTER_NAME    = EARTH
REF_FRAME      = TEME
TIME_SYSTEM    = UTC
MEAN_ELEMENT_THEORY = SGP/SGP4

EPOCH          = 2025-11-24T15:41:49.094016
MEAN_MOTION    = 15.49296482
ECCENTRICITY   = .00017201
INCLINATION    = 53.1608
RA_OF_ASC_NODE = 54.7146
ARG_OF_PERICENTER = 58.1782
MEAN_ANOMALY   = 301.9395

EPHEMERIS_TYPE = 0
CLASSIFICATION_TYPE = U
NORAD_CAT_ID   = 66245
ELEMENT_SET_NO = 999
REV_AT_EPOCH   = 508
BSTAR          = .1661126E-2
MEAN_MOTION_DOT = .93003E-3
MEAN_MOTION_DDOT = 0

CCSDS_OMM_VERS = 2.0
CREATION_DATE  = 
ORIGINATOR     = 

OBJECT_NAME    = STARLINK-35434
OBJECT_ID      = 2025-245N
CENTER_NAME    = EARTH
REF_FRAME      = TEME
TIME_SYSTEM    = UTC
MEAN_ELEMENT_THEORY = SGP/SGP4

EPOCH          = 2025-11-25T11:49:04.662912
MEAN_MOTION    = 15.48535615
ECCENTRICITY   = .0001416
INCLINATION    = 53.1612
RA_OF_ASC_NODE = 50.7033
ARG_OF_PERICENTER = 72.8683
MEAN_ANOMALY   = 287.2481

EPHEMERIS_TYPE = 0
CLASSIFICATION_TYPE = U
NORAD_CAT_ID   = 66246
ELEMENT_SET_NO = 999
REV_AT_EPOCH   = 505
BSTAR          = -.69523E-2
MEAN_MOTION_DOT = -.359919E-2
MEAN_MOTION_DDOT = 0

